STARLINK-36032          
1 66594U 25270G   26192.07402296  .00009205  00000+0  34362-3 0  9992
2 66594  43.0062  79.5619 0001758 249.2282 110.8381 15.27579497 36382
STARLINK-35711          
1 66595U 25270H   26191.13292389  .00023172  00000+0  84854-3 0  9999
2 66595  42.9957  84.5460 0002337  34.2313 325.8689 15.27593956 36548
STARLINK-35811          
1 66596U 25270J   26192.08431092  .00014904  00000+0  54982-3 0  9993
2 66596  43.0038  79.6461 0000598  53.2846 306.8061 15.27592475 36689
STARLINK-35820          
1 66597U 25270K   26192.06631965  .00009155  00000+0  34176-3 0  9998
2 66597  43.0047  79.5112 0000803  12.9806 347.1066 15.27584342 36686
STARLINK-35981          
1 66598U 25270L   26192.09828893  .00005725  00000+0  21741-3 0  9993
2 66598  42.9991  78.8847 0002099 255.4879 104.5739 15.27580524 36436
STARLINK-35930          
1 66599U 25270M   26192.05604418  .00008505  00000+0  31822-3 0  9995
2 66599  43.0016  79.4281 0001795  32.4013 327.6948 15.27580186 36570
STARLINK-35980          
1 66600U 25270N   26189.92397719  .00014734  00000+0  54339-3 0  9992
2 66600  43.0026  91.8113 0000706 275.8802  84.1970 15.27610242 36146
STARLINK-35978          
1 66601U 25270P   26192.05474803  .00013337  00000+0  49327-3 0  9990
2 66601  43.0005  79.4252 0001842 261.8104  98.2538 15.27583076 36412
STARLINK-36050          
1 66602U 25270Q   26192.93047510  .00010321  00000+0  38401-3 0  9990
2 66602  43.0065  74.8185 0001245 271.6019  88.4690 15.27583162 36601
STARLINK-36048          
1 66603U 25270R   26192.04061478  .00012142  00000+0  45001-3 0  9999
2 66603  42.9962  79.3129 0001629 256.6112 103.4558 15.27581157 36475
STARLINK-35977          
1 66604U 25270S   26192.02904855  .00012929  00000+0  47839-3 0  9997
2 66604  43.0003  79.2255 0001899 259.9500 100.1137 15.27588346 36574
STARLINK-36052          
1 66605U 25270T   26192.92019530  .00008802  00000+0  32904-3 0  9996
2 66605  43.0045  74.7323 0001511 258.1733 101.8949 15.27577012 36709
STARLINK-36063          
1 66606U 25270U   26192.04575423  .00012756  00000+0  47226-3 0  9994
2 66606  43.0004  79.3458 0001475 267.2686  92.7997 15.27581241 36577
STARLINK-35993          
1 66607U 25270V   26192.06759751  .00002868  00000+0  11367-3 0  9995
2 66607  43.0056  79.5130 0000750 297.0807  62.9968 15.27590982 36473
STARLINK-36036          
1 66608U 25270W   26192.04190305  .00010455  00000+0  38895-3 0  9994
2 66608  42.9983  79.3171 0000931 285.3078  74.7671 15.27577531 36416
STARLINK-36034          
1 66609U 25270X   26191.10735829  .00012549  00000+0  46446-3 0  9994
2 66609  43.0016  85.2053 0002401 254.8281 105.2305 15.27601208 36268
STARLINK-35680          
1 66610U 25270Y   26192.05988931  .00018128  00000+0  66642-3 0  9994
2 66610  43.0048  79.4571 0001170 301.4608  58.6129 15.27592097 36685
STARLINK-35583          
1 66611U 25270Z   26192.11759466  .00023923  00000+0  87500-3 0  9996
2 66611  42.9803  79.0495 0007420  47.4847 312.6630 15.27597498 36691
STARLINK-36039          
1 66612U 25270AA  26192.92276425  .00015784  00000+0  58176-3 0  9998
2 66612  43.0042  74.7566 0001664 258.1891 101.8774 15.27585514 36709
STARLINK-36037          
1 66613U 25270AB  26192.06246732  .00015637  00000+0  57638-3 0  9991
2 66613  42.9984  79.4826 0001330  38.7606 321.3341 15.27589686 36578
STARLINK-36040          
1 66614U 25270AC  26191.95482205  .00014458  00000+0  53374-3 0  9999
2 66614  42.9988  80.3930 0000357 307.5806  52.5013 15.27587968 36397
STARLINK-35988          
1 66615U 25270AD  26192.11633536 -.00016191  00000+0 -58088-3 0  9999
2 66615  42.9813  79.0424 0005931  47.8371 312.2984 15.27515834 36422
STARLINK-35391          
1 66616U 25270AE  26192.07787229  .00013545  00000+0  50074-3 0  9999
2 66616  43.0105  79.5841 0002838 238.4517 121.6058 15.27584817 36689
STARLINK-35940          
1 66617U 25271A   26192.51878984  .00009928  00000+0  34689-3 0  9993
2 66617  53.1615 284.8927 0000859 123.1913 236.9170 15.30196299 36520
STARLINK-35970          
1 66618U 25271B   26192.28379709  .00014405  00000+0  49768-3 0  9999
2 66618  53.1587 285.5510 0001015 100.3223 259.7893 15.30190200 36498
STARLINK-35951          
1 66619U 25271C   26192.71895253  .00009931  00000+0  34696-3 0  9997
2 66619  53.1608 284.0064 0000965  82.3760 277.7351 15.30202843 36552
STARLINK-35936          
1 66620U 25271D   26192.46824922  .00010247  00000+0  35760-3 0  9991
2 66620  53.1588 285.2882 0000925  41.1151 318.9920 15.30199852 36516
STARLINK-35847          
1 66621U 25271E   26192.52511900  .00008747  00000+0  30708-3 0  9997
2 66621  53.1608 284.9170 0000817 130.6384 229.4688 15.30201588 36526
STARLINK-35950          
1 66622U 25271F   26192.52090136  .00015798  00000+0  54451-3 0  9996
2 66622  53.1607 284.9052 0001167  87.5103 272.6032 15.30191754 36529
STARLINK-35920          
1 66623U 25271G   26192.55640908  .00006077  00000+0  19093-3 0  9991
2 66623  53.1586 281.5814 0001106 111.3735 248.7386 15.34384276 36573
