OBJECT_NAME,OBJECT_ID,EPOCH,MEAN_MOTION,ECCENTRICITY,INCLINATION,RA_OF_ASC_NODE,ARG_OF_PERICENTER,MEAN_ANOMALY,EPHEMERIS_TYPE,CLASSIFICATION_TYPE,NORAD_CAT_ID,ELEMENT_SET_NO,REV_AT_EPOCH,BSTAR,MEAN_MOTION_DOT,MEAN_MOTION_DDOT
STARLINK-36032,2025-270G,2026-07-11T01:46:35.583744,15.27579497,.0001758,43.0062,79.5619,249.2282,110.8381,0,U,66594,999,3638,.34362245E-3,.9205E-4,0
STARLINK-35711,2025-270H,2026-07-10T03:11:24.624096,15.27593956,.00023372,42.9957,84.5460,34.2313,325.8689,0,U,66595,999,3654,.84853854E-3,.23172E-3,0
STARLINK-35811,2025-270J,2026-07-11T02:01:24.463488,15.27592475,.00005982,43.0038,79.6461,53.2846,306.8061,0,U,66596,999,3668,.54981613E-3,.14904E-3,0
STARLINK-35820,2025-270K,2026-07-11T01:35:30.017760,15.27584342,.00008036,43.0047,79.5112,12.9806,347.1066,0,U,66597,999,3668,.34175952E-3,.9155E-4,0
STARLINK-35981,2025-270L,2026-07-11T02:21:32.163552,15.27580524,.00020994,42.9991,78.8847,255.4879,104.5739,0,U,66598,999,3643,.21741432E-3,.5725E-4,0
STARLINK-35930,2025-270M,2026-07-11T01:20:42.217152,15.27580186,.00017951,43.0016,79.4281,32.4013,327.6948,0,U,66599,999,3657,.31822166E-3,.8505E-4,0
STARLINK-35980,2025-270N,2026-07-08T22:10:31.629216,15.27610242,.0000706,43.0026,91.8113,275.8802,84.1970,0,U,66600,999,3614,.54338907E-3,.14734E-3,0
STARLINK-35978,2025-270P,2026-07-11T01:18:50.229792,15.27583076,.00018426,43.0005,79.4252,261.8104,98.2538,0,U,66601,999,3641,.49326775E-3,.13337E-3,0
STARLINK-36050,2025-270Q,2026-07-11T22:19:53.048640,15.27583162,.00012456,43.0065,74.8185,271.6019,88.4690,0,U,66602,999,3660,.38401422E-3,.10321E-3,0
STARLINK-36048,2025-270R,2026-07-11T00:58:29.116992,15.27581157,.00016295,42.9962,79.3129,256.6112,103.4558,0,U,66603,999,3647,.45001129E-3,.12142E-3,0
STARLINK-35977,2025-270S,2026-07-11T00:41:49.794720,15.27588346,.00018995,43.0003,79.2255,259.9500,100.1137,0,U,66604,999,3657,.47838966E-3,.12929E-3,0
STARLINK-36052,2025-270T,2026-07-11T22:05:04.873920,15.27577012,.00015116,43.0045,74.7323,258.1733,101.8949,0,U,66605,999,3670,.3290449E-3,.8802E-4,0
STARLINK-36063,2025-270U,2026-07-11T01:05:53.165472,15.27581241,.00014754,43.0004,79.3458,267.2686,92.7997,0,U,66606,999,3657,.47225697E-3,.12756E-3,0
STARLINK-35993,2025-270V,2026-07-11T01:37:20.424864,15.27590982,.00007505,43.0056,79.5130,297.0807,62.9968,0,U,66607,999,3647,.1136687E-3,.2868E-4,0
STARLINK-36036,2025-270W,2026-07-11T01:00:20.423520,15.27577531,.00009311,42.9983,79.3171,285.3078,74.7671,0,U,66608,999,3641,.38894563E-3,.10455E-3,0
STARLINK-36034,2025-270X,2026-07-10T02:34:35.756256,15.27601208,.00024013,43.0016,85.2053,254.8281,105.2305,0,U,66609,999,3626,.46445721E-3,.12549E-3,0
STARLINK-35680,2025-270Y,2026-07-11T01:26:14.436384,15.27592097,.00011704,43.0048,79.4571,301.4608,58.6129,0,U,66610,999,3668,.6664246E-3,.18128E-3,0
STARLINK-35583,2025-270Z,2026-07-11T02:49:20.178624,15.27597498,.00074203,42.9803,79.0495,47.4847,312.6630,0,U,66611,999,3669,.8749978E-3,.23923E-3,0
STARLINK-36039,2025-270AA,2026-07-11T22:08:46.831200,15.27585514,.00016648,43.0042,74.7566,258.1891,101.8774,0,U,66612,999,3670,.5817638E-3,.15784E-3,0
STARLINK-36037,2025-270AB,2026-07-11T01:29:57.176448,15.27589686,.00013301,42.9984,79.4826,38.7606,321.3341,0,U,66613,999,3657,.57637725E-3,.15637E-3,0
STARLINK-36040,2025-270AC,2026-07-10T22:54:56.625120,15.27587968,.00003579,42.9988,80.3930,307.5806,52.5013,0,U,66614,999,3639,.53374484E-3,.14458E-3,0
STARLINK-35988,2025-270AD,2026-07-11T02:47:31.375104,15.27515834,.00059316,42.9813,79.0424,47.8371,312.2984,0,U,66615,999,3642,-.58088065E-3,-.16191E-3,0
STARLINK-35391,2025-270AE,2026-07-11T01:52:08.165856,15.27584817,.00028386,43.0105,79.5841,238.4517,121.6058,0,U,66616,999,3668,.50073594E-3,.13545E-3,0
STARLINK-35940,2025-271A,2026-07-11T12:27:03.442176,15.30196299,.0000859,53.1615,284.8927,123.1913,236.9170,0,U,66617,999,3652,.34689362E-3,.9928E-4,0
STARLINK-35970,2025-271B,2026-07-11T06:48:40.068576,15.30190200,.00010159,53.1587,285.5510,100.3223,259.7893,0,U,66618,999,3649,.49768141E-3,.14405E-3,0
STARLINK-35951,2025-271C,2026-07-11T17:15:17.498592,15.30202843,.0000965,53.1608,284.0064,82.3760,277.7351,0,U,66619,999,3655,.34695782E-3,.9931E-4,0
STARLINK-35936,2025-271D,2026-07-11T11:14:16.732608,15.30199852,.00009252,53.1588,285.2882,41.1151,318.9920,0,U,66620,999,3651,.357604E-3,.10247E-3,0
STARLINK-35847,2025-271E,2026-07-11T12:36:10.281600,15.30201588,.0000817,53.1608,284.9170,130.6384,229.4688,0,U,66621,999,3652,.30707896E-3,.8747E-4,0
STARLINK-35950,2025-271F,2026-07-11T12:30:05.877504,15.30191754,.0001167,53.1607,284.9052,87.5103,272.6032,0,U,66622,999,3652,.54451422E-3,.15798E-3,0
STARLINK-35920,2025-271G,2026-07-11T13:21:13.744512,15.34384276,.00011062,53.1586,281.5814,111.3735,248.7386,0,U,66623,999,3657,.19093411E-3,.6077E-4,0
